#dP2024  6 23  0  0  0.00000000      96 __u+U IGS20 FIT  IAC
## 2320      0.00000000   900.00000000 60484 0.0000000000000
+  127   C01C02C03C04C05C06C07C08C09C10C11C12C13C14C16C19C20
+        C21C22C23C24C25C26C27C28C29C30C32C33C34C35C36C37C38
+        C39C41C42C43C44C45C60E02E03E04E05E07E08E09E10E11E12
+        E13E14E15E18E19E21E25E26E27E30E31E33E34E36G01G02G03
+        G04G05G06G07G08G09G10G11G12G13G14G15G16G17G18G19G20
+        G21G22G23G24G25G26G27G28G29G30G31G32J02J03J04J07R01
+        R02R03R04R05R06R07R08R09R10R11R12R13R14R15R16R17R18
+        R19R20R21R22R23R24R25R26  0  0  0  0  0  0  0  0  0
++        18 17 17 17 17  9 10 10  9 10  9  9  9  9  9  7  7
++         7  7  8  7  7  7  7  7  7  7  7  7  7  7  7  8  8
++         8  8  7  8  7  7 17  5  5  4  5  4  5  4  4  4  4
++         4  4  4  4  4  4  6  4  4  4  5  4  5  5  4  4  4
++         4  4  4  4  4  4  4  4  4  4  4  4  4  4  4  4  4
++         4  4  4  4  4  4  4  4  4  4  4  4 11 10 10 17  7
++         6  6  6  6 15  6  6  6 15  6  6  8  6  6  6  6  6
++         7  7  6  6 15  6  8  8  0  0  0  0  0  0  0  0  0
%c M  cc GPS ccc cccc cccc cccc cccc ccccc ccccc ccccc ccccc
%c cc cc ccc ccc cccc cccc cccc cccc ccccc ccccc ccccc ccccc
%f  0.0000000  0.000000000  0.00000000000  0.000000000000000
%f  0.0000000  0.000000000  0.00000000000  0.000000000000000
%i    0    0    0    0      0      0      0      0         0
%i    0    0    0    0      0      0      0      0         0
/* INFORMATION & ANALYSIS CENTER (IAC)            RAPID DATA
/* S/V CLOCKS ARE ALIGNED TO GNSS TIME                      
/* G:C1WC2W R:C1PC2P E:C1XC5X C:C2IC6I J:C1CC2S             
/* PCV:IGS20_2317 OL/AL:FES2004  NONE     YN ORB:CoN CLK:CoN
*  2024 06 23 21  0  0.00000000
PC01 -34341.031431  24447.575761  -1276.300839    903.843586
PC02   4443.705650  41902.141224  -1488.474430    797.576441
PC03 -14727.092493  39489.708340  -1424.394499    457.465316
PC04 -39648.150205  14362.483818   -900.481698   -609.742052
PC05  21969.553025  35962.800461   -903.277157   -664.306426
PC06 -16348.280710  37757.524124   8565.675092    530.423872
PC07  -1281.097601  34323.962598  24706.833709   -611.264057
PC08 -12106.887665  19440.646711 -35466.247771   -243.143589
PC09  -9669.677489  36718.177133  18126.988271     67.389661
PC10   4842.543922  36715.401162  21016.729556    -43.500937
PC11   1503.513807  25960.218329 -10084.880768    628.339479
PC12 -10413.614273  24525.769129   8340.164059   -259.142297
PC13  -5215.152136  21528.893090 -35750.434975    438.484336
PC14  11704.429735  21473.343923 -13493.383316    910.988683
PC16 -17232.833268  37608.850218   7467.564513   -609.382477
PC19 -18785.988125 -19979.969171   5083.975738   -915.203698
PC20  -4268.841172 -20051.640510  18920.110660   -608.441508
PC21 -14286.498845   7922.069329 -22610.321054   -967.268321
PC22 -23418.503598  -8409.818644 -12606.856748 999999.999999
PC23  25260.898280   -287.638195  11864.629030   -790.294008
PC24  -8839.747346  18180.450779  19239.530259    896.562073
PC25  11919.092196  12322.556245  22008.029589    433.472233
PC26 -23770.283843  13653.784336   5302.166147   -310.010274
PC27  14319.734968 -18176.375697 -15625.448452    331.198027
PC28  16269.041947   -648.427047 -22662.176888    254.721238
PC29  -8846.630627 -20798.211128  16357.492218    298.993794
PC30   4100.336044 -27607.437497   -539.441468   -111.606077
PC32  14364.872973  -7924.205371  22588.682029   -654.917469
PC33  18895.642471  19899.527869  -5147.969427   -960.369941
PC34  -2975.925360  27717.179074  -1107.714332    462.206300
PC35 -16272.826479    760.134430  22637.902987    330.503490
PC36 -11788.242785 -12500.917133 -21963.349138    118.343624
PC37  24079.553163 -13070.851158  -5219.809816   -935.744891
PC38 -19594.169765  20533.347945 -31184.823293    163.089242
PC39 -19080.392969  37433.347531    782.360917     -8.865311
PC41  23625.218455   9022.870809  11874.620021   -958.446865
PC42   2656.837486  19482.644140 -19778.056285   -448.004664
PC43   8374.713133  21521.743458 -15668.711508     76.403980
PC44 -13729.676852  18563.477248  15636.947555    512.508032
PC45 -25142.470449     61.101671 -12126.498998    -97.299590
PC60   7289.946920  41501.864485  -1710.600877     -0.796023
PE02 -23646.990683 -13902.176721 -11137.696532    137.854679
PE03 -15869.120659 -21129.717287 -13319.485575   -122.351017
PE04  17508.045355    542.219914  23872.787179   -428.467479
PE05  -4929.499895 -28783.426226   4815.814451   4759.717942
PE07  -9165.619323  19372.036739 -20416.713895   -127.396038
PE08 -17538.575176  -1589.925703 -23786.230779   -291.750221
PE09   9133.387727 -19223.998407  20568.004437   -490.550976
PE10  23165.197493 -16405.048721  -8395.124433   -635.061402
PE11  19545.017530 -22148.768781   1977.399661   2559.655531
PE12  23095.710172  -8763.192472 -16331.586201  -1094.582160
PE13 -19805.930862  21947.514086  -1432.148014    -22.470646
PE14  -3493.054582  26599.239853  12391.478270     85.373272
PE15 -22920.194224   8294.943640  16788.442317   -110.660007
PE18  11763.560005 -16434.059139 -18308.386346    256.136974
PE19  14937.478086  22713.214312  11729.588542    169.894410
PE21   5581.412746  17777.492575  23002.243177   -601.629980
PE25  -5100.880657 -17746.508841 -23127.079479      6.093598
PE26  -4576.974512  22429.066545 -18769.569748    492.429772
PE27 -16466.354543  11423.017069  21789.322560   -382.787612
PE30 -28544.558047  -1717.466451   7651.426271   -435.756542
PE31  28526.151091   1593.068648  -7734.159044    -27.284989
PE33  12145.030303  10441.274237 -24896.761200     13.092664
PE34 -12566.922058  -9975.877143  24863.010259   -118.703839
PE36   5201.616052 -22539.502419  18467.314025   -245.375511
PG01 -25328.879297  -8005.335956  -3451.994827    254.210097
PG02 -14197.086717  22056.713210  -2471.251808   -412.155044
PG03  -6972.396937  13448.358553 -21964.860365    427.378786
PG04  -2963.434683  22613.536653 -13481.329059    389.488804
PG05  21694.424680  -6286.305283  13859.135765   -177.363225
PG06  15357.899123   3873.212054 -21281.211382    201.721201
PG07   1120.183293  19068.609312  18780.859071    -85.379590
PG08  -9892.943440  14063.955593  20018.124366    243.688558
PG09   7185.270653  25392.155668  -2824.689766    246.242881
PG10 -22732.836977 -10809.533320   9184.608206    -49.537734
PG11  21191.597021  -8499.711819 -13499.611031   -691.615627
PG12  10324.687206 -12547.581574 -21280.894112   -516.594356
PG13  14112.933126  -5094.726091  21690.553750    659.973844
PG14  19868.419201  13264.392289  11872.519717    432.534647
PG15   8050.018867 -15536.291713  19428.478186    173.436702
PG16 -24099.403953   1135.014936  11260.457539   -256.005824
PG17  12933.558572  20448.866898 -10347.816944    689.934909
PG18   -756.909334 -18392.558906  19079.540022   -628.644407
PG19  15395.746723  13015.382109 -17669.782384    500.648789
PG20  25935.676577  -2746.293119   4633.216804    373.509791
PG21 -16786.168539  19704.634826   2816.144581    113.501596
PG22  23792.770311  10560.115718   4830.060501    -31.094981
PG23 -13173.468938 -14534.772967  18026.145671    257.461858
PG24  14418.677552 -22006.318559  -1560.056507   -479.579322
PG25  -1535.854243 -15939.733893 -21556.842761    497.733072
PG26 -26317.087805  -4528.784827  -1921.761703    131.992499
PG27 -15174.204149   1893.822613  21458.748114    -29.204061
PG28 -14298.167543  -6266.576823 -21497.577969   -301.892729
PG29  -2692.702176 -25779.379560  -5540.050388   -592.862590
PG30  10886.018728  11567.687374  21425.204693   -369.377276
PG31 -20343.000134   4374.174498 -16943.042341   -227.225459
PG32 -15180.128901 -18224.155499 -11941.563372   -615.215286
PJ02 -28881.911471  21274.651951  27289.195184     -0.394834
PJ03 -32049.256548  27025.668548   9032.536222      0.731134
PJ04 -21884.986208  22728.332023 -22915.830878     50.401027
PJ07 -25395.625464  33661.281400    -40.102332     -0.045299
PR01  14164.169692    786.671689  21205.088560     89.302461
PR02   2019.984706 -13392.594740  21674.646782    -23.402875
PR03 -11388.307658 -20668.697727   9803.187867    102.632751
PR04 -17968.140079 -16658.358668  -7085.738528    242.450373
PR05 -15112.075158  -3735.199862 -20202.522437    133.544168
PR06   -589.071359  14339.885154 -21094.378741   -168.913878
PR07  11850.628965  20674.033649  -8994.315235     85.200383
PR08  18187.781228  16259.851513   7456.660771     -5.276515
PR09 -14782.100070  11808.841779  17086.090395    193.881568
PR10    469.094215  11149.350658  22937.655067   -180.762686
PR11  18495.475300   4679.356488  16956.492882     20.451218
PR12  24972.132033  -5076.856860   -985.281658     41.661385
PR13  17297.760543 -10879.544605 -15274.637762    -48.623381
PR14  -3065.457132 -10754.760915 -22907.721130     26.630049
PR15 -19658.758544  -4086.833016 -15701.098894     78.543752
PR16 -24957.265592   5107.304716    834.826469     26.758507
PR17   1597.741704 -21759.440431  13179.623507     98.499484
PR18  -7360.627786  -9343.554808  22580.150492    148.489718
PR19 -12759.239250   5831.986359  21299.187679   -281.382761
PR20 -11720.299511  22072.524594   5018.144377   -114.976055
PR21  -2043.003836  21922.968472 -12911.804003   -111.770494
PR22   8097.546998   8480.855499 -22630.073080     98.820949
PR23  13186.820508  -9279.224749 -19778.159030   -124.773294
PR24  10620.335749 -22756.237407  -4407.323889    -61.043293
PR25  -2132.398344  21654.149535 -13330.775929    -79.613781
PR26  18111.379056  16927.636188   6084.600475     -5.654962
EOF
